{
  "type": "FeatureCollection",
  "name": "regions",
  "notes": "Authored soft-edged look regions in MAP KILOMETRES (x east, y north). Index order = look texture channel order (region 'north' is the default for uncovered land). softKm = Gaussian edge width. Overlaps are normalised. PHASE 0 PLACEHOLDER: latitude bands over the flat slab (label I) \u2014 Phase 1 redraws them on the georeferenced map (kingdom borders from The Lands of Ice and Fire, label M).",
  "features": [
    {"type": "Feature", "properties": {"id": "north", "index": 0, "softKm": 60}, "geometry": {"type": "Polygon", "coordinates": [[[0, 3650], [2000, 3650], [2000, 5100], [0, 5100], [0, 3650]]]}},
    {"type": "Feature", "properties": {"id": "beyond-the-wall", "index": 1, "softKm": 60}, "geometry": {"type": "Polygon", "coordinates": [[[0, 5100], [2000, 5100], [2000, 5800], [0, 5800], [0, 5100]]]}},
    {"type": "Feature", "properties": {"id": "iron-islands", "index": 2, "softKm": 60}, "geometry": {"type": "Polygon", "coordinates": [[[0, 3500], [2000, 3500], [2000, 3650], [0, 3650], [0, 3500]]]}},
    {"type": "Feature", "properties": {"id": "riverlands", "index": 3, "softKm": 60}, "geometry": {"type": "Polygon", "coordinates": [[[0, 2700], [2000, 2700], [2000, 3200], [0, 3200], [0, 2700]]]}},
    {"type": "Feature", "properties": {"id": "vale", "index": 4, "softKm": 60}, "geometry": {"type": "Polygon", "coordinates": [[[0, 3200], [2000, 3200], [2000, 3500], [0, 3500], [0, 3200]]]}},
    {"type": "Feature", "properties": {"id": "westerlands", "index": 5, "softKm": 60}, "geometry": {"type": "Polygon", "coordinates": [[[0, 2300], [2000, 2300], [2000, 2700], [0, 2700], [0, 2300]]]}},
    {"type": "Feature", "properties": {"id": "crownlands", "index": 6, "softKm": 60}, "geometry": {"type": "Polygon", "coordinates": [[[0, 1900], [2000, 1900], [2000, 2300], [0, 2300], [0, 1900]]]}},
    {"type": "Feature", "properties": {"id": "stormlands", "index": 7, "softKm": 60}, "geometry": {"type": "Polygon", "coordinates": [[[0, 1500], [2000, 1500], [2000, 1900], [0, 1900], [0, 1500]]]}},
    {"type": "Feature", "properties": {"id": "reach", "index": 8, "softKm": 60}, "geometry": {"type": "Polygon", "coordinates": [[[0, 700], [2000, 700], [2000, 1500], [0, 1500], [0, 700]]]}},
    {"type": "Feature", "properties": {"id": "dorne", "index": 9, "softKm": 60}, "geometry": {"type": "Polygon", "coordinates": [[[0, 0], [2000, 0], [2000, 700], [0, 700], [0, 0]]]}}
  ]
}
